<?xml version='1.0' encoding='UTF-8'?>
<osm version="0.6" generator="osmfilter 1.4.4">
    <bounds minlat="41.4438" minlon="26.4812" maxlat="41.5322" maxlon="26.5952"/>
    <node id="164574780" lat="41.5163899" lon="26.5291294" version="7" timestamp="2010-10-29T08:37:17Z" changeset="6215185" uid="242896" user="Whitelion808"/>
    <node id="283711169" lat="41.5031784" lon="26.5323722" version="7" timestamp="2011-07-27T22:18:57Z" changeset="8849839" uid="23785" user="greecemapper"/>
    <node id="299263482" lat="41.5036382" lon="26.528601" version="16" timestamp="2019-05-16T03:35:33Z" changeset="70299727" uid="539772" user="Joseph E">
        <tag k="addr:postcode" v="68200"/>
        <tag k="alt_name:mk" v="Орестијада"/>
        <tag k="is_in" v="Orestiada municipality,Evros prefecture,Anatoliki Makedonia ke Thraki,Greece"/>
        <tag k="name" v="Ορεστιάδα"/>
        <tag k="name:de" v="Orestiada"/>
        <tag k="name:el" v="Ορεστιάδα"/>
        <tag k="name:en" v="Orestiada"/>
        <tag k="name:et" v="Orestiáda"/>
        <tag k="name:fr" v="Orestiada"/>
        <tag k="name:mk" v="Кумчифтлии"/>
        <tag k="name:ru" v="Орестиас"/>
        <tag k="name:tr" v="Kumçiftliği"/>
        <tag k="place" v="town"/>
        <tag k="population" v="15246"/>
        <tag k="wikidata" v="Q992228"/>
        <tag k="wikipedia" v="el:Ορεστιάδα"/>
    </node>
    <node id="299266545" lat="41.4950707" lon="26.5030085" version="5" timestamp="2012-06-29T16:23:45Z" changeset="12058168" uid="653" user="aitolos">
        <tag k="addr:postcode" v="68200"/>
        <tag k="is_in" v="Orestiada municipality,Evros prefecture,Anatoliki Makedonia ke Thraki,Greece"/>
        <tag k="name" v="Νέος Πύργος"/>
        <tag k="name:de" v="Neos Pyrgos"/>
        <tag k="name:el" v="Νέος Πύργος"/>
        <tag k="name:en" v="Neos Pyrgos"/>
        <tag k="name:fr" v="Neos Pyrgos"/>
        <tag k="place" v="village"/>
        <tag k="population" v="849"/>
    </node>
    <node id="301031648" lat="41.4963329" lon="26.4929584" version="3" timestamp="2008-11-25T19:37:10Z" changeset="792962" uid="14235" user="AiNikolas"/>
    <node id="301031649" lat="41.4974901" lon="26.4891819" version="3" timestamp="2008-11-25T19:37:10Z" changeset="792962" uid="14235" user="AiNikolas"/>
    <node id="301031652" lat="41.4982615" lon="26.4871219" version="3" timestamp="2008-11-25T19:37:10Z" changeset="792962" uid="14235" user="AiNikolas"/>
    <node id="301031655" lat="41.502247" lon="26.4775089" version="9" timestamp="2009-02-16T04:42:06Z" changeset="487503" uid="14235" user="AiNikolas"/>
    <node id="301031656" lat="41.5045611" lon="26.4720157" version="4" timestamp="2008-11-25T19:37:21Z" changeset="792962" uid="14235" user="AiNikolas"/>
    <node id="301031658" lat="41.5057181" lon="26.4696125" version="2" timestamp="2008-11-25T19:37:21Z" changeset="792962" uid="14235" user="AiNikolas"/>
</osm>